CCSDS_OMM_VERS = 2.0
CREATION_DATE  = 
ORIGINATOR     = 

OBJECT_NAME    = TITAN 4B R/B
OBJECT_ID      = 2000-047B
CENTER_NAME    = EARTH
REF_FRAME      = TEME
TIME_SYSTEM    = UTC
MEAN_ELEMENT_THEORY = SGP/SGP4

EPOCH          = 2025-11-13T13:42:46.325664
MEAN_MOTION    = 15.08486595
ECCENTRICITY   = .00415653
INCLINATION    = 67.9918
RA_OF_ASC_NODE = 6.7569
ARG_OF_PERICENTER = 178.7128
MEAN_ANOMALY   = 181.4136

EPHEMERIS_TYPE = 0
CLASSIFICATION_TYPE = U
NORAD_CAT_ID   = 26474
ELEMENT_SET_NO = 999
REV_AT_EPOCH   = 37539
BSTAR          = .60973726E-3
MEAN_MOTION_DOT = .96E-4
MEAN_MOTION_DDOT = 0

CCSDS_OMM_VERS = 2.0
CREATION_DATE  = 
ORIGINATOR     = 

OBJECT_NAME    = ENVISAT
OBJECT_ID      = 2002-009A
CENTER_NAME    = EARTH
REF_FRAME      = TEME
TIME_SYSTEM    = UTC
MEAN_ELEMENT_THEORY = SGP/SGP4

EPOCH          = 2025-11-13T12:03:59.692608
MEAN_MOTION    = 14.38983547
ECCENTRICITY   = .00013035
INCLINATION    = 98.3553
RA_OF_ASC_NODE = 268.9917
ARG_OF_PERICENTER = 82.3801
MEAN_ANOMALY   = 30.0152

EPHEMERIS_TYPE = 0
CLASSIFICATION_TYPE = U
NORAD_CAT_ID   = 27386
ELEMENT_SET_NO = 999
REV_AT_EPOCH   = 24246
BSTAR          = .14166772E-3
MEAN_MOTION_DOT = .394E-5
MEAN_MOTION_DDOT = 0

CCSDS_OMM_VERS = 2.0
CREATION_DATE  = 
ORIGINATOR     = 

OBJECT_NAME    = IDEFIX & ARIANE 42P R/B
OBJECT_ID      = 2002-021B
CENTER_NAME    = EARTH
REF_FRAME      = TEME
TIME_SYSTEM    = UTC
MEAN_ELEMENT_THEORY = SGP/SGP4

EPOCH          = 2025-11-13T10:11:39.738336
MEAN_MOTION    = 14.30919259
ECCENTRICITY   = .00119138
INCLINATION    = 98.5740
RA_OF_ASC_NODE = 252.5031
ARG_OF_PERICENTER = 164.4716
MEAN_ANOMALY   = 195.6835

EPHEMERIS_TYPE = 0
CLASSIFICATION_TYPE = U
NORAD_CAT_ID   = 27422
ELEMENT_SET_NO = 999
REV_AT_EPOCH   = 22739
BSTAR          = .32676432E-3
MEAN_MOTION_DOT = .815E-5
MEAN_MOTION_DDOT = 0

CCSDS_OMM_VERS = 2.0
CREATION_DATE  = 
ORIGINATOR     = 

OBJECT_NAME    = AQUA
OBJECT_ID      = 2002-022A
CENTER_NAME    = EARTH
REF_FRAME      = TEME
TIME_SYSTEM    = UTC
MEAN_ELEMENT_THEORY = SGP/SGP4

EPOCH          = 2025-11-13T14:18:06.918624
MEAN_MOTION    = 14.61709527
ECCENTRICITY   = .00008181
INCLINATION    = 98.3990
RA_OF_ASC_NODE = 278.0103
ARG_OF_PERICENTER = 56.2875
MEAN_ANOMALY   = 355.6018

EPHEMERIS_TYPE = 0
CLASSIFICATION_TYPE = U
NORAD_CAT_ID   = 27424
ELEMENT_SET_NO = 999
REV_AT_EPOCH   = 25177
BSTAR          = .718913E-3
MEAN_MOTION_DOT = .3534E-4
MEAN_MOTION_DDOT = 0

CCSDS_OMM_VERS = 2.0
CREATION_DATE  = 
ORIGINATOR     = 

OBJECT_NAME    = CZ-4B R/B
OBJECT_ID      = 2002-024C
CENTER_NAME    = EARTH
REF_FRAME      = TEME
TIME_SYSTEM    = UTC
MEAN_ELEMENT_THEORY = SGP/SGP4

EPOCH          = 2025-11-13T10:08:08.778912
MEAN_MOTION    = 14.14519127
ECCENTRICITY   = .00500044
INCLINATION    = 98.9045
RA_OF_ASC_NODE = 6.2899
ARG_OF_PERICENTER = 354.3690
MEAN_ANOMALY   = 16.6021

EPHEMERIS_TYPE = 0
CLASSIFICATION_TYPE = U
NORAD_CAT_ID   = 27432
ELEMENT_SET_NO = 999
REV_AT_EPOCH   = 21280
BSTAR          = .10779607E-3
MEAN_MOTION_DOT = .164E-5
MEAN_MOTION_DDOT = 0

CCSDS_OMM_VERS = 2.0
CREATION_DATE  = 
ORIGINATOR     = 

OBJECT_NAME    = MIDORI II (ADEOS-II)
OBJECT_ID      = 2002-056A
CENTER_NAME    = EARTH
REF_FRAME      = TEME
TIME_SYSTEM    = UTC
MEAN_ELEMENT_THEORY = SGP/SGP4

EPOCH          = 2025-11-13T10:50:09.060000
MEAN_MOTION    = 14.29176699
ECCENTRICITY   = .0001318
INCLINATION    = 98.7590
RA_OF_ASC_NODE = 270.2615
ARG_OF_PERICENTER = 33.2685
MEAN_ANOMALY   = 326.8579

EPHEMERIS_TYPE = 0
CLASSIFICATION_TYPE = U
NORAD_CAT_ID   = 27597
ELEMENT_SET_NO = 999
REV_AT_EPOCH   = 19369
BSTAR          = .3187658E-3
MEAN_MOTION_DOT = .764E-5
MEAN_MOTION_DDOT = 0

CCSDS_OMM_VERS = 2.0
CREATION_DATE  = 
ORIGINATOR     = 

OBJECT_NAME    = H-2A R/B
OBJECT_ID      = 2002-056E
CENTER_NAME    = EARTH
REF_FRAME      = TEME
TIME_SYSTEM    = UTC
MEAN_ELEMENT_THEORY = SGP/SGP4

EPOCH          = 2025-11-13T12:25:22.433664
MEAN_MOTION    = 14.33645412
ECCENTRICITY   = .00708894
INCLINATION    = 98.3021
RA_OF_ASC_NODE = 277.4453
ARG_OF_PERICENTER = 146.9275
MEAN_ANOMALY   = 325.5355

EPHEMERIS_TYPE = 0
CLASSIFICATION_TYPE = U
NORAD_CAT_ID   = 27601
ELEMENT_SET_NO = 999
REV_AT_EPOCH   = 19746
BSTAR          = .2685651E-3
MEAN_MOTION_DOT = .725E-5
MEAN_MOTION_DDOT = 0

CCSDS_OMM_VERS = 2.0
CREATION_DATE  = 
ORIGINATOR     = 

OBJECT_NAME    = CZ-4B R/B
OBJECT_ID      = 2003-049C
CENTER_NAME    = EARTH
REF_FRAME      = TEME
TIME_SYSTEM    = UTC
MEAN_ELEMENT_THEORY = SGP/SGP4

EPOCH          = 2025-11-13T10:26:57.390144
MEAN_MOTION    = 14.54870225
ECCENTRICITY   = .00473767
INCLINATION    = 98.6770
RA_OF_ASC_NODE = 302.8957
ARG_OF_PERICENTER = 225.6169
MEAN_ANOMALY   = 134.1143

EPHEMERIS_TYPE = 0
CLASSIFICATION_TYPE = U
NORAD_CAT_ID   = 28059
ELEMENT_SET_NO = 999
REV_AT_EPOCH   = 16969
BSTAR          = .24814447E-3
MEAN_MOTION_DOT = .103E-4
MEAN_MOTION_DDOT = 0

CCSDS_OMM_VERS = 2.0
CREATION_DATE  = 
ORIGINATOR     = 

OBJECT_NAME    = CZ-2C R/B
OBJECT_ID      = 2004-012C
CENTER_NAME    = EARTH
REF_FRAME      = TEME
TIME_SYSTEM    = UTC
MEAN_ELEMENT_THEORY = SGP/SGP4

EPOCH          = 2025-11-13T02:56:05.408448
MEAN_MOTION    = 15.52916406
ECCENTRICITY   = .00191881
INCLINATION    = 97.7482
RA_OF_ASC_NODE = 7.3518
ARG_OF_PERICENTER = 22.4017
MEAN_ANOMALY   = 337.8068

EPHEMERIS_TYPE = 0
CLASSIFICATION_TYPE = U
NORAD_CAT_ID   = 28222
ELEMENT_SET_NO = 999
REV_AT_EPOCH   = 18612
BSTAR          = .82390715E-3
MEAN_MOTION_DOT = .51769E-3
MEAN_MOTION_DDOT = 0

CCSDS_OMM_VERS = 2.0
CREATION_DATE  = 
ORIGINATOR     = 

OBJECT_NAME    = SL-16 R/B
OBJECT_ID      = 2004-021B
CENTER_NAME    = EARTH
REF_FRAME      = TEME
TIME_SYSTEM    = UTC
MEAN_ELEMENT_THEORY = SGP/SGP4

EPOCH          = 2025-11-13T11:42:07.000992
MEAN_MOTION    = 14.14572996
ECCENTRICITY   = .00065639
INCLINATION    = 70.9978
RA_OF_ASC_NODE = 116.3494
ARG_OF_PERICENTER = 230.0742
MEAN_ANOMALY   = 129.9804

EPHEMERIS_TYPE = 0
CLASSIFICATION_TYPE = U
NORAD_CAT_ID   = 28353
ELEMENT_SET_NO = 999
REV_AT_EPOCH   = 10640
BSTAR          = .20318854E-3
MEAN_MOTION_DOT = .343E-5
MEAN_MOTION_DDOT = 0

CCSDS_OMM_VERS = 2.0
CREATION_DATE  = 
ORIGINATOR     = 

OBJECT_NAME    = CZ-4B R/B
OBJECT_ID      = 2004-035C
CENTER_NAME    = EARTH
REF_FRAME      = TEME
TIME_SYSTEM    = UTC
MEAN_ELEMENT_THEORY = SGP/SGP4

EPOCH          = 2025-11-13T12:46:34.962240
MEAN_MOTION    = 15.26720469
ECCENTRICITY   = .00344988
INCLINATION    = 97.3653
RA_OF_ASC_NODE = 348.2742
ARG_OF_PERICENTER = 23.2844
MEAN_ANOMALY   = 336.9949

EPHEMERIS_TYPE = 0
CLASSIFICATION_TYPE = U
NORAD_CAT_ID   = 28415
ELEMENT_SET_NO = 999
REV_AT_EPOCH   = 16217
BSTAR          = .71410294E-3
MEAN_MOTION_DOT = .19046E-3
MEAN_MOTION_DDOT = 0

CCSDS_OMM_VERS = 2.0
CREATION_DATE  = 
ORIGINATOR     = 

OBJECT_NAME    = CZ-2C R/B
OBJECT_ID      = 2004-046B
CENTER_NAME    = EARTH
REF_FRAME      = TEME
TIME_SYSTEM    = UTC
MEAN_ELEMENT_THEORY = SGP/SGP4

EPOCH          = 2025-11-13T08:49:49.524384
MEAN_MOTION    = 14.26921756
ECCENTRICITY   = .01402978
INCLINATION    = 98.1961
RA_OF_ASC_NODE = 234.5759
ARG_OF_PERICENTER = 138.4783
MEAN_ANOMALY   = 222.7159

EPHEMERIS_TYPE = 0
CLASSIFICATION_TYPE = U
NORAD_CAT_ID   = 28480
ELEMENT_SET_NO = 999
REV_AT_EPOCH   = 9191
BSTAR          = .17841612E-3
MEAN_MOTION_DOT = .441E-5
MEAN_MOTION_DDOT = 0

