TITAN 4B R/B            
1 26474U 00047B   25317.57136951  .00009600  00000+0  60974-3 0  9992
2 26474  67.9918   6.7569 0041565 178.7128 181.4136 15.08486595375395
ENVISAT                 
1 27386U 02009A   25317.50277422  .00000394  00000+0  14167-3 0  9991
2 27386  98.3553 268.9917 0001303  82.3801  30.0152 14.38983547242463
IDEFIX & ARIANE 42P R/B 
1 27422U 02021B   25317.42476549  .00000815  00000+0  32676-3 0  9991
2 27422  98.5740 252.5031 0011913 164.4716 195.6835 14.30919259227397
AQUA                    
1 27424U 02022A   25317.59591341  .00003534  00000+0  71891-3 0  9993
2 27424  98.3990 278.0103 0000818  56.2875 355.6018 14.61709527251772
CZ-4B R/B               
1 27432U 02024C   25317.42232383  .00000164  00000+0  10780-3 0  9990
2 27432  98.9045   6.2899 0050004 354.3690  16.6021 14.14519127212802
MIDORI II (ADEOS-II)    
1 27597U 02056A   25317.45149375  .00000764  00000+0  31877-3 0  9994
2 27597  98.7590 270.2615 0001318  33.2685 326.8579 14.29176699193695
H-2A R/B                
1 27601U 02056E   25317.51762076  .00000725  00000+0  26857-3 0  9995
2 27601  98.3021 277.4453 0070889 146.9275 325.5355 14.33645412197467
CZ-4B R/B               
1 28059U 03049C   25317.43538646  .00001030  00000+0  24814-3 0  9992
2 28059  98.6770 302.8957 0047376 225.6169 134.1143 14.54870225169691
CZ-2C R/B               
1 28222U 04012C   25317.12228482  .00051769  00000+0  82391-3 0  9993
2 28222  97.7482   7.3518 0019188  22.4017 337.8068 15.52916406186124
SL-16 R/B               
1 28353U 04021B   25317.48758103  .00000343  00000+0  20319-3 0  9999
2 28353  70.9978 116.3494 0006563 230.0742 129.9804 14.14572996106401
CZ-4B R/B               
1 28415U 04035C   25317.53234910  .00019046  00000+0  71410-3 0  9992
2 28415  97.3653 348.2742 0034498  23.2844 336.9949 15.26720469162178
CZ-2C R/B               
1 28480U 04046B   25317.36793431  .00000441  00000+0  17842-3 0  9993
2 28480  98.1961 234.5759 0140297 138.4783 222.7159 14.26921756 91911
